#aV2009  8 25  0  0   .00000000      96 DD+AD WGS84 FIT  NGA
## 1546 172800.00000000   900.00000000 55068  .0000000000000
+   31     1  2  3  4  6  7  8  9 10 11 12 13 14 15 16 17 18
+         19 20 21 22 23 24 25 26 27 28 29 30 31 32  0  0  0
+          0  0  0  0  0  0  0  0  0  0  0  0  0  0  0  0  0
+          0  0  0  0  0  0  0  0  0  0  0  0  0  0  0  0  0
+          0  0  0  0  0  0  0  0  0  0  0  0  0  0  0  0  0
++         0  0  0  0  0  0  0  0  0  0  0  0  0  0  0  0  0
++         0  0  0  0  0  0  0  0  0  0  0  0  0  0  0  0  0
++         0  0  0  0  0  0  0  0  0  0  0  0  0  0  0  0  0
++         0  0  0  0  0  0  0  0  0  0  0  0  0  0  0  0  0
++         0  0  0  0  0  0  0  0  0  0  0  0  0  0  0  0  0
%c cc cc ccc ccc cccc cccc cccc cccc ccccc ccccc ccccc ccccc
%c cc cc ccc ccc cccc cccc cccc cccc ccccc ccccc ccccc ccccc
%f  0.0000000  0.000000000  0.00000000000  0.000000000000000
%f  0.0000000  0.000000000  0.00000000000  0.000000000000000
%i    0    0    0    0      0      0      0      0         0
%i    0    0    0    0      0      0      0      0         0
/*      NGA, ST. LOUIS,MO.                                  
/*   EPHEMERIS COMPUTED FROM  3 DAYS OF DATA                
/* CCCCCCCCCCCCCCCCCCCCCCCCCCCCCCCCCCCCCCCCCCCCCCCCCCCCCCCCC
/* CCCCCCCCCCCCCCCCCCCCCCCCCCCCCCCCCCCCCCCCCCCCCCCCCCCCCCCCC
*  2009  8 25 22 30   .00000000                                                 
P  1 -19197.515853  17853.920981  -3999.288808    -58.240218                    
V  1  -5672.069992    716.502189  31299.201721       .008315                    
P  2 -13120.187522 -18116.147005 -14711.443337    167.695228                    
V  2   -127.421456 -18568.231353  22676.323615       .025447                    
P  3  24481.762187  10279.584122  -3599.114649    438.504634                    
V  3  -4992.085162   2132.124247 -30318.055092       .049894                    
P  4  -7218.630801 -24630.622785  -6177.130344   -236.030344                    
V  4   2755.052865  -8118.687215  30181.742340      -.170936                    
P  6  22156.102071  13297.654964  -6143.968406    226.614672                    
V  6  -8755.156582    369.454111 -29786.266742       .078825                    
P  7   7936.642154 -20514.243235 -14804.479612     12.707612                    
V  7   4077.627381  18462.149228 -23569.491113      -.006947                    
P  8    787.637835 -26077.297392  -3174.042286   -218.389499                    
V  8   2509.611474   3903.572604 -32392.022246      -.017034                    
P  9 -14244.390677   3051.874155  21546.893949     73.934342                    
V  9  -4317.139815 -28598.495432   1222.540243       .020356                    
P 10 -17290.785244  -4927.828268 -19818.534673    -22.063279                    
V 10  19640.941494 -15050.729329 -13173.208920      -.008146                    
P 11  15388.249638  -6331.878074  20473.434606    -16.704455                    
V 11   9085.437765  25265.885320   1338.618888      -.016780                    
P 12 -23172.263454  10319.822185   7710.025576   -228.860761                    
V 12   6383.904581  -7776.016720  29935.383207       .058632                    
P 13  10668.603690 -10610.799482 -22016.988813    303.707759                    
V 13  24418.536914  12764.962481   5698.072542       .005680                    
P 14   6598.171717  17281.483037  19236.238902    -60.056584                    
V 14 -22017.524278  -9698.731635  16247.480927       .053618                    
P 15 -25245.193422  -6586.328286   5189.928524   -315.875468                    
V 15  -4953.910877  -5132.651812 -30690.869244      -.015783                    
P 16  12342.443405   9398.094505 -21538.180020     19.338677                    
V 16 -22221.979075  16041.480206  -5483.069268      -.037864                    
P 17  -6266.824270 -17550.818597  19070.850710     79.978080                    
V 17  22342.133011   8852.691222  15355.484852       .028146                    
P 18 -14500.641141  19469.934314  10555.116077      7.884303                    
V 18 -12700.044556   4892.419147 -27477.717411       .028461                    
P 19  24650.674105   7005.340273   7544.577711     13.622926                    
V 19   7184.686886   6623.345367 -29564.983421      -.016025                    
P 20  22685.637528 -12550.815156   5544.858934     73.868537                    
V 20  -3608.489265   7121.158093  30258.898862      -.009141                    
P 21  -6402.731980  22580.956804 -11527.344802     -5.289893                    
V 21  -5083.766440 -14938.838650 -26441.746535      -.022359                    
P 22  -3596.959387  18886.962462  18456.565031    192.478765                    
V 22 -20142.439360  11658.535088 -16079.746095      -.006748                    
P 23  21796.350705  -1815.165994 -15318.124377    389.203014                    
V 23  16940.050090   9260.798020  22767.668487      -.003280                    
P 24 -13365.883840  11729.313933 -19677.490374    215.322117                    
V 24  -2753.701111 -25101.574128 -12757.208110       .031331                    
P 25  10445.987919 -14589.998159 -19307.458174    568.072393                    
V 25   6269.016458  24392.705523 -14598.749372       .156776                    
P 26  -4117.234341  13816.468544  21739.039329     64.078500                    
V 26 -25954.018043 -12664.741900   3531.800232      -.005224                    
P 27 -15593.848190  -2649.984888  22026.985182     77.294197                    
V 27  -4076.856869 -25992.070225  -6193.656781       .030782                    
P 28   6109.151539 -19069.697356  17724.694356    -26.227131                    
V 28  18816.541848 -11037.766864 -19136.418617       .000020                    
P 29 -13224.518956   9816.414460 -20728.751379     51.837516                    
V 29 -23683.253066 -12053.155471   9399.375710       .032958                    
P 30 -19417.776153  17941.218641  -2483.938351    171.624791                    
V 30  -4046.982744   -709.717479  31417.101511       .030523                    
P 31   8011.013254  23977.561405  -7705.297457    -64.869280                    
V 31  -1249.358966  10292.826525  30075.487765       .001179                    
P 32  23263.066997  -4340.040044  12166.028229    208.528742                    
V 32 -11483.412352   9858.831527  26584.021205      -.067436                    
EOF
